ONEWEB-0198             
1 48216U 21031G   26195.47687547  .00000208  00000+0  52565-3 0  9994
2 48216  87.8962 284.2720 0002496 101.2241 258.9170 13.14503133252072
ONEWEB-0189             
1 48217U 21031H   26195.48942121  .00000011  00000+0 -53827-5 0  9995
2 48217  87.8972 284.2591 0002354 100.5653 259.5742 13.14502226251817
ONEWEB-0196             
1 48218U 21031J   26195.61945728  .00000272  00000+0  70037-3 0  9995
2 48218  87.8968 284.2417 0002192  99.8315 260.3062 13.14502895251834
ONEWEB-0183             
1 48219U 21031K   26195.51796182 -.00000123  00000+0 -36606-3 0  9994
2 48219  87.8966 284.2594 0001964  94.5971 265.5383 13.14502202251919
ONEWEB-0185             
1 48220U 21031L   26195.62023252  .00000348  00000+0  90417-3 0  9996
2 48220  87.8976 284.2345 0002215  90.2171 269.9213 13.14504364251855
ONEWEB-0187             
1 48221U 21031M   26195.52416349  .00000055  00000+0  11490-3 0  9998
2 48221  87.8967 284.2675 0002204  97.3284 262.8096 13.14503545251854
ONEWEB-0192             
1 48222U 21031N   26195.49417678 -.00000066  00000+0 -21230-3 0  9998
2 48222  87.8969 284.2633 0002133 101.1746 258.9623 13.14503337251760
ONEWEB-0219             
1 48223U 21031P   26195.47355044  .00000220  00000+0  55825-3 0  9992
2 48223  87.8977 284.2607 0002213  95.2163 264.9219 13.14503623251964
ONEWEB-0202             
1 48224U 21031Q   26195.53065660  .00000151  00000+0  37225-3 0  9999
2 48224  87.8970 284.2616 0002645 107.9012 252.2407 13.14502860251951
ONEWEB-0204             
1 48225U 21031R   26195.48862082  .00000098  00000+0  22896-3 0  9995
2 48225  87.8971 284.2644 0001803  88.5428 271.5908 13.14500114251842
ONEWEB-0205             
1 48226U 21031S   26195.61628190  .00000293  00000+0  75574-3 0  9999
2 48226  87.8976 284.2342 0002308  96.3266 263.8126 13.14503084251879
ONEWEB-0206             
1 48227U 21031T   26195.51319905 -.00000117  00000+0 -34997-3 0  9991
2 48227  87.8971 284.2549 0001901 101.8471 258.2872 13.14502416251810
ONEWEB-0182             
1 48228U 21031U   26195.50843490 -.00000216  00000+0 -61604-3 0  9997
2 48228  87.8968 284.2621 0001898  94.3260 265.8087 13.14503993252022
ONEWEB-0186             
1 48229U 21031V   26195.51954505 -.00000030  00000+0 -11569-3 0  9998
2 48229  87.8976 284.2534 0002133  98.0031 262.1341 13.14503534251972
ONEWEB-0181             
1 48230U 21031W   26195.49732924  .00000018  00000+0  14041-4 0  9999
2 48230  87.8963 284.2819 0002270  98.5265 261.6122 13.14503010251826
ONEWEB-0188             
1 48231U 21031X   26195.61152073  .00000263  00000+0  67461-3 0  9990
2 48231  87.8960 284.2590 0002072  98.1142 262.0223 13.14503006251743
ONEWEB-0220             
1 48232U 21031Y   26195.27057764 -.00000543  00000+0 -14982-2 0  9996
2 48232  87.8977 284.3038 0002175  93.3644 266.7734 13.14495182251965
ONEWEB-0165             
1 48233U 21031Z   26195.60359692  .00000062  00000+0  13361-3 0  9994
2 48233  87.8968 284.2488 0002427 102.6270 257.5131 13.14503416251962
ONEWEB-0199             
1 48234U 21031AA  26195.51161934 -.00000221  00000+0 -62967-3 0  9990
2 48234  87.8976 284.2542 0001861 101.2339 258.9000 13.14501696251851
ONEWEB-0203             
1 48235U 21031AB  26195.50210040 -.00000170  00000+0 -49274-3 0  9992
2 48235  87.8975 284.2593 0002077 105.4703 254.6657 13.14501347251863
ONEWEB-0197             
1 48236U 21031AC  26195.47658866  .00000150  00000+0  36968-3 0  9993
2 48236  87.8963 284.2481 0001985  92.7949 267.3408 13.14502740251777
ONEWEB-0194             
1 48237U 21031AD  26195.60834772 -.00000050  00000+0 -16892-3 0  9996
2 48237  87.8968 284.2453 0001903 106.5940 253.5399 13.14502347251967
ONEWEB-0193             
1 48238U 21031AE  26195.54809506  .00000220  00000+0  55916-3 0  9994
2 48238  87.8968 284.2477 0001807 110.4543 249.6781 13.14502785251901
ONEWEB-0191             
1 48239U 21031AF  26195.48306434  .00000076  00000+0  17085-3 0  9994
2 48239  87.8978 284.2611 0001910  95.1812 264.9536 13.14506598251753
ONEWEB-0195             
1 48240U 21031AG  26195.61231458  .00000438  00000+0  11472-2 0  9999
2 48240  87.8976 284.2353 0002463 102.8725 257.2680 13.14502528251753
ONEWEB-0201             
1 48241U 21031AH  26195.52443582  .00000133  00000+0  32504-3 0  9995
2 48241  87.8966 284.2675 0002038  91.6336 268.5028 13.14503591251977
ONEWEB-0207             
1 48242U 21031AJ  26195.50446490 -.00000159  00000+0 -46387-3 0  9999
2 48242  87.8974 284.2576 0002045  92.0538 268.0826 13.14501045251887
ONEWEB-0208             
1 48243U 21031AK  26195.48624350  .00000039  00000+0  71824-4 0  9990
2 48243  87.8972 284.2668 0002370 103.1386 257.0009 13.14502259251894
ONEWEB-0200             
1 48244U 21031AL  26195.60201201  .00000089  00000+0  20493-3 0  9991
2 48244  87.8980 284.2329 0002128  98.6961 261.4410 13.14502965251839
ONEWEB-0217             
1 48245U 21031AM  26195.61786708  .00000303  00000+0  78329-3 0  9993
2 48245  87.8978 284.2338 0002398 103.1080 257.0317 13.14502973251780
