OBJECT_NAME,OBJECT_ID,EPOCH,MEAN_MOTION,ECCENTRICITY,INCLINATION,RA_OF_ASC_NODE,ARG_OF_PERICENTER,MEAN_ANOMALY,EPHEMERIS_TYPE,CLASSIFICATION_TYPE,NORAD_CAT_ID,ELEMENT_SET_NO,REV_AT_EPOCH,BSTAR,MEAN_MOTION_DOT,MEAN_MOTION_DDOT
ONEWEB-0198,2021-031G,2026-07-14T11:26:42.040608,13.14503133,.00024962,87.8962,284.2720,101.2241,258.9170,0,U,48216,999,25207,.52565128E-3,.208E-5,0
ONEWEB-0189,2021-031H,2026-07-14T11:44:45.992544,13.14502226,.0002354,87.8972,284.2591,100.5653,259.5742,0,U,48217,999,25181,-.5382738E-5,.11E-6,0
ONEWEB-0196,2021-031J,2026-07-14T14:52:01.108992,13.14502895,.00021929,87.8968,284.2417,99.8315,260.3062,0,U,48218,999,25183,.70037113E-3,.272E-5,0
ONEWEB-0183,2021-031K,2026-07-14T12:25:51.901248,13.14502202,.00019642,87.8966,284.2594,94.5971,265.5383,0,U,48219,999,25191,-.36605563E-3,-.123E-5,0
ONEWEB-0185,2021-031L,2026-07-14T14:53:08.089728,13.14504364,.00022154,87.8976,284.2345,90.2171,269.9213,0,U,48220,999,25185,.90417315E-3,.348E-5,0
ONEWEB-0187,2021-031M,2026-07-14T12:34:47.725536,13.14503545,.00022044,87.8967,284.2675,97.3284,262.8096,0,U,48221,999,25185,.11490378E-3,.55E-6,0
ONEWEB-0192,2021-031N,2026-07-14T11:51:36.873792,13.14503337,.00021333,87.8969,284.2633,101.1746,258.9623,0,U,48222,999,25176,-.21229897E-3,-.66E-6,0
ONEWEB-0219,2021-031P,2026-07-14T11:21:54.758016,13.14503623,.00022138,87.8977,284.2607,95.2163,264.9219,0,U,48223,999,25196,.55824965E-3,.22E-5,0
ONEWEB-0202,2021-031Q,2026-07-14T12:44:08.730240,13.14502860,.00026456,87.8970,284.2616,107.9012,252.2407,0,U,48224,999,25195,.37224944E-3,.151E-5,0
ONEWEB-0204,2021-031R,2026-07-14T11:43:36.838848,13.14500114,.00018031,87.8971,284.2644,88.5428,271.5908,0,U,48225,999,25184,.22896008E-3,.98E-6,0
ONEWEB-0205,2021-031S,2026-07-14T14:47:26.756160,13.14503084,.00023088,87.8976,284.2342,96.3266,263.8126,0,U,48226,999,25187,.75573679E-3,.293E-5,0
ONEWEB-0206,2021-031T,2026-07-14T12:19:00.397920,13.14502416,.00019015,87.8971,284.2549,101.8471,258.2872,0,U,48227,999,25181,-.34996521E-3,-.117E-5,0
ONEWEB-0182,2021-031U,2026-07-14T12:12:08.775360,13.14503993,.00018984,87.8968,284.2621,94.3260,265.8087,0,U,48228,999,25202,-.61603705E-3,-.216E-5,0
ONEWEB-0186,2021-031V,2026-07-14T12:28:08.692320,13.14503534,.00021331,87.8976,284.2534,98.0031,262.1341,0,U,48229,999,25197,-.11569084E-3,-.3E-6,0
ONEWEB-0181,2021-031W,2026-07-14T11:56:09.246336,13.14503010,.000227,87.8963,284.2819,98.5265,261.6122,0,U,48230,999,25182,.14041091E-4,.18E-6,0
ONEWEB-0188,2021-031X,2026-07-14T14:40:35.391072,13.14503006,.00020722,87.8960,284.2590,98.1142,262.0223,0,U,48231,999,25174,.67461125E-3,.263E-5,0
ONEWEB-0220,2021-031Y,2026-07-14T06:29:37.908096,13.14495182,.00021757,87.8977,284.3038,93.3644,266.7734,0,U,48232,999,25196,-.14982231E-2,-.543E-5,0
ONEWEB-0165,2021-031Z,2026-07-14T14:29:10.773888,13.14503416,.00024275,87.8968,284.2488,102.6270,257.5131,0,U,48233,999,25196,.13360822E-3,.62E-6,0
ONEWEB-0199,2021-031AA,2026-07-14T12:16:43.910976,13.14501696,.00018613,87.8976,284.2542,101.2339,258.9000,0,U,48234,999,25185,-.62966533E-3,-.221E-5,0
ONEWEB-0203,2021-031AB,2026-07-14T12:03:01.474560,13.14501347,.00020773,87.8975,284.2593,105.4703,254.6657,0,U,48235,999,25186,-.49273969E-3,-.17E-5,0
ONEWEB-0197,2021-031AC,2026-07-14T11:26:17.260224,13.14502740,.00019853,87.8963,284.2481,92.7949,267.3408,0,U,48236,999,25177,.36968489E-3,.15E-5,0
ONEWEB-0194,2021-031AD,2026-07-14T14:36:01.243008,13.14502347,.00019039,87.8968,284.2453,106.5940,253.5399,0,U,48237,999,25196,-.16891654E-3,-.5E-6,0
ONEWEB-0193,2021-031AE,2026-07-14T13:09:15.413184,13.14502785,.00018073,87.8968,284.2477,110.4543,249.6781,0,U,48238,999,25190,.55915795E-3,.22E-5,0
ONEWEB-0191,2021-031AF,2026-07-14T11:35:36.758976,13.14506598,.00019107,87.8978,284.2611,95.1812,264.9536,0,U,48239,999,25175,.17084557E-3,.76E-6,0
ONEWEB-0195,2021-031AG,2026-07-14T14:41:43.979712,13.14502528,.0002463,87.8976,284.2353,102.8725,257.2680,0,U,48240,999,25175,.11471969E-2,.438E-5,0
ONEWEB-0201,2021-031AH,2026-07-14T12:35:11.254848,13.14503591,.00020386,87.8966,284.2675,91.6336,268.5028,0,U,48241,999,25197,.32503513E-3,.133E-5,0
ONEWEB-0207,2021-031AJ,2026-07-14T12:06:25.767360,13.14501045,.00020451,87.8974,284.2576,92.0538,268.0826,0,U,48242,999,25188,-.4638742E-3,-.159E-5,0
ONEWEB-0208,2021-031AK,2026-07-14T11:40:11.438400,13.14502259,.00023706,87.8972,284.2668,103.1386,257.0009,0,U,48243,999,25189,.71824177E-4,.39E-6,0
ONEWEB-0200,2021-031AL,2026-07-14T14:26:53.837664,13.14502965,.00021282,87.8980,284.2329,98.6961,261.4410,0,U,48244,999,25183,.20493487E-3,.89E-6,0
ONEWEB-0217,2021-031AM,2026-07-14T14:49:43.715712,13.14502973,.00023986,87.8978,284.2338,103.1080,257.0317,0,U,48245,999,25178,.78329309E-3,.303E-5,0
